[
    {
        "Altitude(m)": 565779.4420981274,
        "Argument of Periapsis(deg)": -0.03013754771062987,
        "Eccentricity": 0.0,
        "Inclination(deg)": 97.0,
        "Latitude(deg)": 16.32699992179131,
        "Longitude(deg)": -45.18667352182182,
        "Mean Anomaly(deg)": 16.501691025583376,
        "RAAN(deg)": 60.00792940482467,
        "Satellite Name": "Starlink Shell 3 1753",
        "Satellite Number": 1753,
        "Semi-Major Axis(m)": 6938478.169268562,
        "Time(s)": 760
    },
    {
        "Altitude(m)": 565809.9712661898,
        "Argument of Periapsis(deg)": -0.030534094391032898,
        "Eccentricity": 0.0,
        "Inclination(deg)": 97.0,
        "Latitude(deg)": 16.950711216551152,
        "Longitude(deg)": -45.311372813893634,
        "Mean Anomaly(deg)": 17.127167223288385,
        "RAAN(deg)": 60.008033739098686,
        "Satellite Name": "Starlink Shell 3 1753",
        "Satellite Number": 1753,
        "Semi-Major Axis(m)": 6938478.169268562,
        "Time(s)": 770
    },
    {
        "Altitude(m)": 565844.3178557476,
        "Argument of Periapsis(deg)": -0.030930641071435925,
        "Eccentricity": 0.0,
        "Inclination(deg)": 97.0,
        "Latitude(deg)": 17.574354411138923,
        "Longitude(deg)": -45.4366204295416,
        "Mean Anomaly(deg)": 17.75264342099343,
        "RAAN(deg)": 60.00813807337269,
        "Satellite Name": "Starlink Shell 3 1753",
        "Satellite Number": 1753,
        "Semi-Major Axis(m)": 6938478.169268562,
        "Time(s)": 780
    },
    {
        "Altitude(m)": 565882.4373216021,
        "Argument of Periapsis(deg)": -0.031327187751838945,
        "Eccentricity": 0.0,
        "Inclination(deg)": 97.0,
        "Latitude(deg)": 18.197926354131127,
        "Longitude(deg)": -45.56244123496851,
        "Mean Anomaly(deg)": 18.378119618698488,
        "RAAN(deg)": 60.008242407646705,
        "Satellite Name": "Starlink Shell 3 1753",
        "Satellite Number": 1753,
        "Semi-Major Axis(m)": 6938478.169268562,
        "Time(s)": 790
    },
    {
        "Altitude(m)": 565924.2833974663,
        "Argument of Periapsis(deg)": -0.031723734432241975,
        "Eccentricity": 0.0,
        "Inclination(deg)": 97.0,
        "Latitude(deg)": 18.821423879413892,
        "Longitude(deg)": -45.688861213656224,
        "Mean Anomaly(deg)": 19.00359581640356,
        "RAAN(deg)": 60.008346741920704,
        "Satellite Name": "Starlink Shell 3 1753",
        "Satellite Number": 1753,
        "Semi-Major Axis(m)": 6938478.169268562,
        "Time(s)": 800
    },
    {
        "Altitude(m)": 565969.8081225153,
        "Argument of Periapsis(deg)": -0.032120281112645,
        "Eccentricity": 0.0,
        "Inclination(deg)": 97.0,
        "Latitude(deg)": 19.444843804854067,
        "Longitude(deg)": -45.8159069959207,
        "Mean Anomaly(deg)": 19.62907201410857,
        "RAAN(deg)": 60.00845107619472,
        "Satellite Name": "Starlink Shell 3 1753",
        "Satellite Number": 1753,
        "Semi-Major Axis(m)": 6938478.169268562,
        "Time(s)": 810
    },
    {
        "Altitude(m)": 566018.9618687526,
        "Argument of Periapsis(deg)": -0.03251682779304802,
        "Eccentricity": 0.0,
        "Inclination(deg)": 97.0,
        "Latitude(deg)": 20.068182930861752,
        "Longitude(deg)": -45.94360539000104,
        "Mean Anomaly(deg)": 20.254548211813574,
        "RAAN(deg)": 60.00855541046872,
        "Satellite Name": "Starlink Shell 3 1753",
        "Satellite Number": 1753,
        "Semi-Major Axis(m)": 6938478.169268562,
        "Time(s)": 820
    },
    {
        "Altitude(m)": 566071.6933691886,
        "Argument of Periapsis(deg)": -0.032913374473451044,
        "Eccentricity": 0.0,
        "Inclination(deg)": 97.0,
        "Latitude(deg)": 20.69143803883454,
        "Longitude(deg)": -46.071984427657576,
        "Mean Anomaly(deg)": 20.88002440951862,
        "RAAN(deg)": 60.008659744742744,
        "Satellite Name": "Starlink Shell 3 1753",
        "Satellite Number": 1753,
        "Semi-Major Axis(m)": 6938478.169268562,
        "Time(s)": 830
    },
    {
        "Altitude(m)": 566127.9497468158,
        "Argument of Periapsis(deg)": -0.03330992115385407,
        "Eccentricity": 0.0,
        "Inclination(deg)": 97.0,
        "Latitude(deg)": 21.31460588948046,
        "Longitude(deg)": -46.201072898645464,
        "Mean Anomaly(deg)": 21.505500607223677,
        "RAAN(deg)": 60.00876407901676,
        "Satellite Name": "Starlink Shell 3 1753",
        "Satellite Number": 1753,
        "Semi-Major Axis(m)": 6938478.169268562,
        "Time(s)": 840
    },
    {
        "Altitude(m)": 566187.6765443357,
        "Argument of Periapsis(deg)": -0.0337064678342571,
        "Eccentricity": 0.0,
        "Inclination(deg)": 97.0,
        "Latitude(deg)": 21.93768322101013,
        "Longitude(deg)": -46.33089988705522,
        "Mean Anomaly(deg)": 22.130976804928736,
        "RAAN(deg)": 60.00886841329077,
        "Satellite Name": "Starlink Shell 3 1753",
        "Satellite Number": 1753,
        "Semi-Major Axis(m)": 6938478.169268562,
        "Time(s)": 850
    },
    {
        "Altitude(m)": 566250.8177546851,
        "Argument of Periapsis(deg)": -0.03410301451466012,
        "Eccentricity": 0.0,
        "Inclination(deg)": 97.0,
        "Latitude(deg)": 22.560666747187227,
        "Longitude(deg)": -46.46149599061511,
        "Mean Anomaly(deg)": 22.75645300263376,
        "RAAN(deg)": 60.008972747564755,
        "Satellite Name": "Starlink Shell 3 1753",
        "Satellite Number": 1753,
        "Semi-Major Axis(m)": 6938478.169268562,
        "Time(s)": 860
    },
    {
        "Altitude(m)": 566317.3158522826,
        "Argument of Periapsis(deg)": -0.034499561195063144,
        "Eccentricity": 0.0,
        "Inclination(deg)": 97.0,
        "Latitude(deg)": 23.18355315523408,
        "Longitude(deg)": -46.59289202066798,
        "Mean Anomaly(deg)": 23.381929200338753,
        "RAAN(deg)": 60.009077081838775,
        "Satellite Name": "Starlink Shell 3 1753",
        "Satellite Number": 1753,
        "Semi-Major Axis(m)": 6938478.169268562,
        "Time(s)": 870
    },
    {
        "Altitude(m)": 566387.1118249624,
        "Argument of Periapsis(deg)": -0.03489610787546617,
        "Eccentricity": 0.0,
        "Inclination(deg)": 97.0,
        "Latitude(deg)": 23.80633910357662,
        "Longitude(deg)": -46.72512022587553,
        "Mean Anomaly(deg)": 24.00740539804386,
        "RAAN(deg)": 60.00918141611279,
        "Satellite Name": "Starlink Shell 3 1753",
        "Satellite Number": 1753,
        "Semi-Major Axis(m)": 6938478.169268562,
        "Time(s)": 880
    },
    {
        "Altitude(m)": 566460.1452066976,
        "Argument of Periapsis(deg)": -0.0352926545558692,
        "Eccentricity": 0.0,
        "Inclination(deg)": 97.0,
        "Latitude(deg)": 24.4290212194232,
        "Longitude(deg)": -46.85821383738148,
        "Mean Anomaly(deg)": 24.63288159574887,
        "RAAN(deg)": 60.009285750386795,
        "Satellite Name": "Starlink Shell 3 1753",
        "Satellite Number": 1753,
        "Semi-Major Axis(m)": 6938478.169268562,
        "Time(s)": 890
    },
    {
        "Altitude(m)": 566536.3541109132,
        "Argument of Periapsis(deg)": -0.035689201236272214,
        "Eccentricity": 0.0,
        "Inclination(deg)": 97.0,
        "Latitude(deg)": 25.051596096166065,
        "Longitude(deg)": -46.99220661656995,
        "Mean Anomaly(deg)": 25.258357793453982,
        "RAAN(deg)": 60.00939008466081,
        "Satellite Name": "Starlink Shell 3 1753",
        "Satellite Number": 1753,
        "Semi-Major Axis(m)": 6938478.169268562,
        "Time(s)": 900
    },
    {
        "Altitude(m)": 566615.6752645369,
        "Argument of Periapsis(deg)": -0.036085747916675244,
        "Eccentricity": 0.0,
        "Inclination(deg)": 97.0,
        "Latitude(deg)": 25.67406029058976,
        "Longitude(deg)": -47.127133918470015,
        "Mean Anomaly(deg)": 25.883833991158973,
        "RAAN(deg)": 60.00949441893482,
        "Satellite Name": "Starlink Shell 3 1753",
        "Satellite Number": 1753,
        "Semi-Major Axis(m)": 6938478.169268562,
        "Time(s)": 910
    },
    {
        "Altitude(m)": 566698.0440426522,
        "Argument of Periapsis(deg)": -0.03648229459707827,
        "Eccentricity": 0.0,
        "Inclination(deg)": 97.0,
        "Latitude(deg)": 26.296410319880344,
        "Longitude(deg)": -47.263032245253314,
        "Mean Anomaly(deg)": 26.509310188863996,
        "RAAN(deg)": 60.00959875320882,
        "Satellite Name": "Starlink Shell 3 1753",
        "Satellite Number": 1753,
        "Semi-Major Axis(m)": 6938478.169268562,
        "Time(s)": 920
    },
    {
        "Altitude(m)": 566783.3945038209,
        "Argument of Periapsis(deg)": -0.0368788412774813,
        "Eccentricity": 0.0,
        "Inclination(deg)": 97.0,
        "Latitude(deg)": 26.918642658418026,
        "Longitude(deg)": -47.39993880290394,
        "Mean Anomaly(deg)": 27.134786386569054,
        "RAAN(deg)": 60.009703087482826,
        "Satellite Name": "Starlink Shell 3 1753",
        "Satellite Number": 1753,
        "Semi-Major Axis(m)": 6938478.169268562,
        "Time(s)": 930
    },
    {
        "Altitude(m)": 566871.6594259521,
        "Argument of Periapsis(deg)": -0.037275387957884314,
        "Eccentricity": 0.0,
        "Inclination(deg)": 97.0,
        "Latitude(deg)": 27.54075373433863,
        "Longitude(deg)": -47.53789257415513,
        "Mean Anomaly(deg)": 27.760262584274113,
        "RAAN(deg)": 60.00980742175684,
        "Satellite Name": "Starlink Shell 3 1753",
        "Satellite Number": 1753,
        "Semi-Major Axis(m)": 6938478.169268562,
        "Time(s)": 940
    }
]